NAVSTAR 48 (USA 151)    
1 26407U 00040A   26137.38951023  .00000043  00000+0  00000+0 0  9998
2 26407  54.8564 216.3856 0121387 302.3547  64.5586  2.00557371189338
NAVSTAR 51 (USA 166)    
1 27663U 03005A   26137.29912992  .00000043  00000+0  00000+0 0  9999
2 27663  54.8873 216.1962 0147996  53.0145  24.2078  2.00562151170690
NAVSTAR 54 (USA 177)    
1 28190U 04009A   26137.46271088 -.00000030  00000+0  00000+0 0  9990
2 28190  54.8563 276.9279 0114751 171.7221 177.4709  2.00555598162323
NAVSTAR 56 (USA 180)    
1 28474U 04045A   26137.16458684 -.00000064  00000+0  00000+0 0  9998
2 28474  55.1543 326.1453 0169904 315.6024 243.3828  2.00554371157802
NAVSTAR 57 (USA 183)    
1 28874U 05038A   26137.45178031 -.00000028  00000+0  00000+0 0  9992
2 28874  54.9043 274.4173 0127705 295.9631  72.7130  2.00567691151228
NAVSTAR 58 (USA 190)    
1 29486U 06042A   26137.23067566  .00000084  00000+0  00000+0 0  9995
2 29486  54.7060 152.5678 0106165  53.7708  53.2316  2.00571540143772
NAVSTAR 59 (USA 192)    
1 29601U 06052A   26137.00699953  .00000046  00000+0  00000+0 0  9999
2 29601  54.9391 215.2422 0085868  90.5552 270.4999  2.00556386142787
NAVSTAR 60 (USA 196)    
1 32260U 07047A   26137.31176435 -.00000018  00000+0  00000+0 0  9998
2 32260  54.0735  81.3377 0165495  86.8056 275.0499  2.00556707136199
NAVSTAR 61 (USA 199)    
1 32384U 07062A   26135.88162486 -.00000033  00000+0  00000+0 0  9990
2 32384  55.0587 275.4507 0035090 163.5278  10.8819  2.00557999134866
NAVSTAR 62 (USA 201)    
1 32711U 08012A   26137.22573809  .00000083  00000+0  00000+0 0  9999
2 32711  54.4922 151.1616 0210484 247.4279 110.3724  2.00571548133138
NAVSTAR 64 (USA 206)    
1 35752U 09043A   26137.36487006 -.00000073  00000+0  00000+0 0  9990
2 35752  56.1917  28.6625 0053369  81.9855  30.4674  2.00555812122742
NAVSTAR 65 (USA 213)    
1 36585U 10022A   26135.04828097  .00000050  00000+0  00000+0 0  9990
2 36585  54.2737 209.8972 0126448  66.1124 291.3238  2.00560732116921
NAVSTAR 67 (USA 239)    
1 38833U 12053A   26137.40512145  .00000074  00000+0  00000+0 0  9996
2 38833  53.5797 144.8603 0178733  65.3642 296.5167  2.00566950 98820
NAVSTAR 68 (USA 242)    
1 39166U 13023A   26135.27691818 -.00000031  00000+0  00000+0 0  9996
2 39166  54.5310 270.3138 0141799  50.8427 310.3815  2.00563577 95220
NAVSTAR 69 (USA 248)    
1 39533U 14008A   26137.27246839  .00000080  00000+0  00000+0 0  9992
2 39533  53.6488 150.5806 0084108 230.6928 128.5991  2.00557756 89060
NAVSTAR 70 (USA 251)    
1 39741U 14026A   26137.54793650 -.00000065  00000+0  00000+0 0  9995
2 39741  56.5126 332.7102 0038547 326.8811  32.8970  2.00563154 87926
NAVSTAR 71 (USA 256)    
1 40105U 14045A   26137.14053360 -.00000001  00000+0  00000+0 0  9995
2 40105  55.3338  89.7013 0032189 118.6477 241.6385  2.00556251 85451
NAVSTAR 72 (USA 258)    
1 40294U 14068A   26137.01296103 -.00000070  00000+0  00000+0 0  9995
2 40294  56.9669  32.1560 0066118  69.4768 291.2683  2.00574175 84588
NAVSTAR 73 (USA 260)    
1 40534U 15013A   26137.14909111  .00000056  00000+0  00000+0 0  9990
2 40534  53.1707 205.4614 0109029  40.0331 320.8507  2.00553149 81200
NAVSTAR 74 (USA 262)    
1 40730U 15033A   26136.80957444 -.00000025  00000+0  00000+0 0  9991
2 40730  54.0080 268.3797 0115005  30.0777 330.5547  2.00557775 79361
NAVSTAR 75 (USA 265)    
1 41019U 15062A   26136.86684735 -.00000070  00000+0  00000+0 0  9990
2 41019  56.9392  32.0179 0111335 231.3553 127.6801  2.00566911 77200
NAVSTAR 76 (USA 266)    
1 41328U 16007A   26136.95576426  .00000002  00000+0  00000+0 0  9994
2 41328  55.5056  90.6972 0096069 247.2726 111.6736  2.00553101 75216
NAVSTAR 77 (USA 289)    
1 43873U 18109A   26137.34343852  .00000006  00000+0  00000+0 0  9999
2 43873  55.6642  93.4031 0037967 198.6881 334.6174  2.00560042 54453
NAVSTAR 78 (USA 293)    
1 44506U 19056A   26135.98166581 -.00000060  00000+0  00000+0 0  9996
2 44506  55.6526 332.4228 0060472 197.4166 335.4017  2.00569160 49428
NAVSTAR 79 (USA 304)    
1 45854U 20041A   26136.09318970 -.00000070  00000+0  00000+0 0  9994
2 45854  56.6497  30.1892 0062712 204.8386 348.2040  2.00559119 43399
NAVSTAR 80 (USA 309)    
1 46826U 20078A   26137.29931361  .00000048  00000+0  00000+0 0  9996
2 46826  53.9840 212.0316 0072187 206.3251 112.9232  2.00564710 40881
NAVSTAR 81 (USA 319)    
1 48859U 21054A   26137.34480044 -.00000068  00000+0  00000+0 0  9995
2 48859  55.1876 333.6992 0024566 229.1390 308.8618  2.00570739 36132
NAVSTAR 82 (USA 343)    
1 55268U 23009A   26136.54568412  .00000092  00000+0  00000+0 0  9992
2 55268  55.1176 149.7626 0006007 315.0109  43.8407  2.00573591 24600
NAVSTAR 83 (USA 440)    
1 62339U 24242A   26136.41882243 -.00000065  00000+0  00000+0 0  9997
2 62339  54.8633 335.4693 0017135   3.3978 346.4178  2.00570725 10613
NAVSTAR 84 (USA 545)    
1 64202U 25116A   26137.42204616 -.00000073  00000+0  00000+0 0  9992
2 64202  55.2167  32.3689 0008620 335.0993 201.3411  2.00577774  7256
NAVSTAR 85 (USA 581)    
1 67588U 26017A   26136.78799381  .00000000  00000+0  00000+0 0  9998
2 67588  55.0690  90.0149 0022897 255.7519 103.9567  2.00571689430989
